KUIPER-00095            
1 65134U 25171C   25361.60392656  .00008325  00000+0  75806-3 0  9995
2 65134  51.8911 108.0230 0004610 243.8524 116.1971 14.95892830 22345
KUIPER-00096            
1 65135U 25171D   25361.48786314  .00000222  00000+0  58387-4 0  9994
2 65135  51.8979 117.3598 0009961 267.8682  92.1140 14.79945125 22209
KUIPER-00097            
1 65136U 25171E   25361.55279078  .00006103  00000+0  82876-3 0  9990
2 65136  51.9015 119.6915 0009653 271.7051  88.2806 14.79921129 22160
KUIPER-00098            
1 65137U 25171F   25361.55001162  .00005778  00000+0  78562-3 0  9992
2 65137  51.8993 122.0880 0006971 253.7878 106.2318 14.79960469 21484
KUIPER-00099            
1 65138U 25171G   25361.99980771  .00005785  00000+0  78619-3 0  9994
2 65138  51.9012 110.0664 0000556 129.2349 230.8663 14.79987959 22344
KUIPER-00100            
1 65139U 25171H   25362.16668980  .00033657  00000+0  44253-2 0  9995
2 65139  51.8996 106.7049 0000191 114.2876 279.1264 14.79900204  5744
KUIPER-00102            
1 65140U 25171J   25362.16668980  .00044130  00000+0  57864-2 0  9997
2 65140  51.8972 109.3625 0000853 120.5017 229.2522 14.79884832  5641
KUIPER-00103            
1 65141U 25171K   25361.77839352  .00006075  00000+0  82457-3 0  9990
2 65141  51.8976 128.5694 0005582 248.8953 111.1412 14.79961857 22067
